{
  "type": "FeatureCollection",
  "features": [
    {
      "type": "Feature",
      "properties": {
        "norad_id": 41599,
        "name": "CARTOSAT-2C",
        "group": "resource",
        "lat": -38.47052781965909,
        "lon": 64.88831678351445,
        "alt_km": 510.3408840791635,
        "timestamp": "2025-12-27T19:21:58.431984+00:00",
        "meta_object_name": "CARTOSAT-2C",
        "meta_object_id": "2016-040A",
        "meta_epoch": "2025-12-27T11:37:59.072736",
        "meta_mean_motion": 15.19259269,
        "meta_eccentricity": 0.0010512,
        "meta_inclination": 97.4746,
        "meta_ra_of_asc_node": 58.5812,
        "meta_arg_of_pericenter": 16.6991,
        "meta_mean_anomaly": 343.4588,
        "meta_ephemeris_type": 0,
        "meta_classification_type": "U",
        "meta_norad_cat_id": 41599,
        "meta_element_set_no": 999,
        "meta_rev_at_epoch": 52764,
        "meta_bstar": 0.00042693,
        "meta_mean_motion_dot": 8.948e-05,
        "meta_mean_motion_ddot": 0,
        "tle_line1": "1 41599U 16040A   25361.48471149  .00008948  00000+0  42693-3 0  9999",
        "tle_line2": "2 41599  97.4746  58.5812 0010512  16.6991 343.4588 15.19259269527645"
      },
      "geometry": {
        "type": "Point",
        "coordinates": [
          64.88831678351445,
          -38.47052781965909
        ]
      }
    },
    {
      "type": "Feature",
      "properties": {
        "norad_id": 41601,
        "name": "SKYSAT-C1",
        "group": "resource",
        "lat": 27.1944537921984,
        "lon": 34.3617186243722,
        "alt_km": 466.2436906373132,
        "timestamp": "2025-12-27T19:21:58.431993+00:00",
        "meta_object_name": "SKYSAT-C1",
        "meta_object_id": "2016-040C",
        "meta_epoch": "2025-12-27T02:00:47.003040",
        "meta_mean_motion": 15.32852129,
        "meta_eccentricity": 7.8e-05,
        "meta_inclination": 96.981,
        "meta_ra_of_asc_node": 37.2889,
        "meta_arg_of_pericenter": 305.2768,
        "meta_mean_anomaly": 54.8402,
        "meta_ephemeris_type": 0,
        "meta_classification_type": "U",
        "meta_norad_cat_id": 41601,
        "meta_element_set_no": 999,
        "meta_rev_at_epoch": 53147,
        "meta_bstar": 0.00033559294,
        "meta_mean_motion_dot": 0.00010579,
        "meta_mean_motion_ddot": 0,
        "tle_line1": "1 41601U 16040C   25361.08387735  .00010579  00000+0  33559-3 0  9990",
        "tle_line2": "2 41601  96.9810  37.2889 0000780 305.2768  54.8402 15.32852129531471"
      },
      "geometry": {
        "type": "Point",
        "coordinates": [
          34.3617186243722,
          27.1944537921984
        ]
      }
    },
    {
      "type": "Feature",
      "properties": {
        "norad_id": 41603,
        "name": "LAPAN-A3",
        "group": "resource",
        "lat": 67.61917999766395,
        "lon": -163.45071323166232,
        "alt_km": 469.79813589176683,
        "timestamp": "2025-12-27T19:21:58.432002+00:00",
        "meta_object_name": "LAPAN-A3",
        "meta_object_id": "2016-040E",
        "meta_epoch": "2025-12-27T12:36:36.224064",
        "meta_mean_motion": 15.31676612,
        "meta_eccentricity": 0.0008641,
        "meta_inclination": 97.1437,
        "meta_ra_of_asc_node": 358.545,
        "meta_arg_of_pericenter": 271.781,
        "meta_mean_anomaly": 88.2442,
        "meta_ephemeris_type": 0,
        "meta_classification_type": "U",
        "meta_norad_cat_id": 41603,
        "meta_element_set_no": 999,
        "meta_rev_at_epoch": 52852,
        "meta_bstar": 0.00016411,
        "meta_mean_motion_dot": 4.95e-05,
        "meta_mean_motion_ddot": 0,
        "tle_line1": "1 41603U 16040E   25361.52541926  .00004950  00000+0  16411-3 0  9999",
        "tle_line2": "2 41603  97.1437 358.5450 0008641 271.7810  88.2442 15.31676612528520"
      },
      "geometry": {
        "type": "Point",
        "coordinates": [
          -163.45071323166232,
          67.61917999766395
        ]
      }
    },
    {
      "type": "Feature",
      "properties": {
        "norad_id": 41604,
        "name": "BIROS",
        "group": "resource",
        "lat": 2.7123408322217,
        "lon": 33.57331391950468,
        "alt_km": 289.0842409495526,
        "timestamp": "2025-12-27T19:21:58.432012+00:00",
        "meta_object_name": "BIROS",
        "meta_object_id": "2016-040F",
        "meta_epoch": "2025-12-27T01:17:48.160032",
        "meta_mean_motion": 15.95745444,
        "meta_eccentricity": 0.00039701,
        "meta_inclination": 97.065,
        "meta_ra_of_asc_node": 33.1199,
        "meta_arg_of_pericenter": 119.7348,
        "meta_mean_anomaly": 240.4324,
        "meta_ephemeris_type": 0,
        "meta_classification_type": "U",
        "meta_norad_cat_id": 41604,
        "meta_element_set_no": 999,
        "meta_rev_at_epoch": 53100,
        "meta_bstar": 0.00067247339,
        "meta_mean_motion_dot": 0.00269024,
        "meta_mean_motion_ddot": 3.0289219e-05,
        "tle_line1": "1 41604U 16040F   25361.05402963  .00269024  30289-4  67247-3 0  9990",
        "tle_line2": "2 41604  97.0650  33.1199 0003970 119.7348 240.4324 15.95745444531008"
      },
      "geometry": {
        "type": "Point",
        "coordinates": [
          33.57331391950468,
          2.7123408322217
        ]
      }
    },
    {
      "type": "Feature",
      "properties": {
        "norad_id": 41727,
        "name": "GAOFEN-3",
        "group": "resource",
        "lat": 81.36550442791273,
        "lon": -69.63426586321134,
        "alt_km": 743.1110180557125,
        "timestamp": "2025-12-27T19:21:58.432021+00:00",
        "meta_object_name": "GAOFEN-3",
        "meta_object_id": "2016-049A",
        "meta_epoch": "2025-12-27T12:17:57.767424",
        "meta_mean_motion": 14.42217484,
        "meta_eccentricity": 0.0001043,
        "meta_inclination": 98.4042,
        "meta_ra_of_asc_node": 6.8734,
        "meta_arg_of_pericenter": 54.4579,
        "meta_mean_anomaly": 305.6707,
        "meta_ephemeris_type": 0,
        "meta_classification_type": "U",
        "meta_norad_cat_id": 41727,
        "meta_element_set_no": 999,
        "meta_rev_at_epoch": 49390,
        "meta_bstar": 5.9628e-05,
        "meta_mean_motion_dot": 1.53e-06,
        "meta_mean_motion_ddot": 0,
        "tle_line1": "1 41727U 16049A   25361.51247416  .00000153  00000+0  59628-4 0  9990",
        "tle_line2": "2 41727  98.4042   6.8734 0001043  54.4579 305.6707 14.42217484493900"
      },
      "geometry": {
        "type": "Point",
        "coordinates": [
          -69.63426586321134,
          81.36550442791273
        ]
      }
    },
    {
      "type": "Feature",
      "properties": {
        "norad_id": 41771,
        "name": "SKYSAT-C4",
        "group": "resource",
        "lat": 49.37375775973552,
        "lon": -145.57734472724442,
        "alt_km": 431.984295797728,
        "timestamp": "2025-12-27T19:21:58.432029+00:00",
        "meta_object_name": "SKYSAT-C4",
        "meta_object_id": "2016-058B",
        "meta_epoch": "2025-12-27T01:40:48.462240",
        "meta_mean_motion": 15.42665603,
        "meta_eccentricity": 0.00026667,
        "meta_inclination": 96.9365,
        "meta_ra_of_asc_node": 25.5626,
        "meta_arg_of_pericenter": 121.1316,
        "meta_mean_anomaly": 239.0195,
        "meta_ephemeris_type": 0,
        "meta_classification_type": "U",
        "meta_norad_cat_id": 41771,
        "meta_element_set_no": 999,
        "meta_rev_at_epoch": 51888,
        "meta_bstar": 0.00040521995,
        "meta_mean_motion_dot": 0.00017599,
        "meta_mean_motion_ddot": 0,
        "tle_line1": "1 41771U 16058B   25361.07000535  .00017599  00000+0  40522-3 0  9993",
        "tle_line2": "2 41771  96.9365  25.5626 0002666 121.1316 239.0195 15.42665603518888"
      },
      "geometry": {
        "type": "Point",
        "coordinates": [
          -145.57734472724442,
          49.37375775973552
        ]
      }
    },
    {
      "type": "Feature",
      "properties": {
        "norad_id": 41772,
        "name": "SKYSAT-C5",
        "group": "resource",
        "lat": -48.076233845243756,
        "lon": 52.87710765137965,
        "alt_km": 470.42133176205607,
        "timestamp": "2025-12-27T19:21:58.432038+00:00",
        "meta_object_name": "SKYSAT-C5",
        "meta_object_id": "2016-058C",
        "meta_epoch": "2025-12-27T02:21:29.429856",
        "meta_mean_motion": 15.34140488,
        "meta_eccentricity": 0.00040611,
        "meta_inclination": 97.0741,
        "meta_ra_of_asc_node": 44.249,
        "meta_arg_of_pericenter": 222.2692,
        "meta_mean_anomaly": 137.824,
        "meta_ephemeris_type": 0,
        "meta_classification_type": "U",
        "meta_norad_cat_id": 41772,
        "meta_element_set_no": 999,
        "meta_rev_at_epoch": 51736,
        "meta_bstar": 0.00033469855,
        "meta_mean_motion_dot": 0.0001099,
        "meta_mean_motion_ddot": 0,
        "tle_line1": "1 41772U 16058C   25361.09825729  .00010990  00000+0  33470-3 0  9998",
        "tle_line2": "2 41772  97.0741  44.2490 0004061 222.2692 137.8240 15.34140488517365"
      },
      "geometry": {
        "type": "Point",
        "coordinates": [
          52.87710765137965,
          -48.076233845243756
        ]
      }
    }
  ]
}